ISS OBJECT XW           
1 66910U 98067XW  26053.26579578  .00116878  00000+0  11799-2 0  9996
2 66910  51.6248 143.9045 0003851  10.7232 349.3844 15.64464608 12763
ISS OBJECT XX           
1 66911U 98067XX  26053.63764318  .00198034  00000+0  16665-2 0  9997
2 66911  51.6235 141.1303 0005844   5.7233 354.3830 15.68678549 12829
ISS OBJECT XY           
1 66912U 98067XY  26053.29255926  .00082068  00000+0  96049-3 0  9994
2 66912  51.6274 144.8438 0001903  15.9273 344.1780 15.60836405 12742
ISS OBJECT XZ           
1 67683U 98067XZ  26053.26547079  .00041343  00000+0  71406-3 0  9991
2 67683  51.6314 148.4121 0010005 134.8539 225.3264 15.50521186  2394
GXIBA-1                 
1 67684U 98067YA  26053.64308545  .00079428  00000+0  12925-2 0  9992
2 67684  51.6313 146.4331 0011656 128.7037 231.4997 15.51889665  2451
CORAL                   
1 67685U 98067YB  26053.84384527  .00046938  00000+0  80080-3 0  9997
2 67685  51.6309 145.5236 0011911 133.1205 227.0782 15.50787508  2480
ISS OBJECT YC           
1 67686U 98067YC  26053.26221280  .00051037  00000+0  86445-3 0  9997
2 67686  51.6313 148.3904 0007688 102.1023 258.0827 15.50999605  2396
LEOPARD                 
1 67687U 98067YD  26053.71565522  .00045416  00000+0  77931-3 0  9992
2 67687  51.6314 146.1685 0007768 106.0969 254.0876 15.50684612  2389
ISS OBJECT YE           
1 67688U 98067YE  26053.26289914  .00047740  00000+0  81295-3 0  9991
2 67688  51.6324 148.3958 0007695 103.3001 256.8847 15.50878079  2317
CREW DRAGON 12          
1 67796U 26031A   26052.76529869  .00010666  00000+0  20704-3 0  9998
2 67796  51.6320 151.0701 0008511 119.8639 240.3195 15.48189327553837
